[{"OBJECT_NAME":"JB-3 3 (ZY 2C)","OBJECT_ID":"2004-044A","EPOCH":"2026-03-09T22:02:57.764832","MEAN_MOTION":15.18506021,"ECCENTRICITY":0.00333938,"INCLINATION":97.2622,"RA_OF_ASC_NODE":226.2642,"ARG_OF_PERICENTER":206.2478,"MEAN_ANOMALY":153.7066,"EPHEMERIS_TYPE":0,"CLASSIFICATION_TYPE":"U","NORAD_CAT_ID":28470,"ELEMENT_SET_NO":999,"REV_AT_EPOCH":17271,"BSTAR":0.00032413866,"MEAN_MOTION_DOT":6.719e-5,"MEAN_MOTION_DDOT":0},{"OBJECT_NAME":"YAOGAN-43 01E","OBJECT_ID":"2024-148E","EPOCH":"2026-03-09T10:46:29.401824","MEAN_MOTION":15.23061231,"ECCENTRICITY":0.00047279,"INCLINATION":34.9939,"RA_OF_ASC_NODE":67.5277,"ARG_OF_PERICENTER":25.6868,"MEAN_ANOMALY":334.4081,"EPHEMERIS_TYPE":0,"CLASSIFICATION_TYPE":"U","NORAD_CAT_ID":60462,"ELEMENT_SET_NO":999,"REV_AT_EPOCH":8694,"BSTAR":0.00071899242,"MEAN_MOTION_DOT":0.0001736,"MEAN_MOTION_DDOT":0}]
